[{"OBJECT_NAME":"SHERPA-LTC2","OBJECT_ID":"2022-107BG","EPOCH":"2026-03-09T17:14:31.494912","MEAN_MOTION":14.68527555,"ECCENTRICITY":0.0397806,"INCLINATION":53.2359,"RA_OF_ASC_NODE":281.0426,"ARG_OF_PERICENTER":308.3547,"MEAN_ANOMALY":48.2298,"EPHEMERIS_TYPE":0,"CLASSIFICATION_TYPE":"U","NORAD_CAT_ID":53754,"ELEMENT_SET_NO":999,"REV_AT_EPOCH":18792,"BSTAR":0.0002221958,"MEAN_MOTION_DOT":4.161e-5,"MEAN_MOTION_DDOT":0},{"OBJECT_NAME":"STARLINK-31341","OBJECT_ID":"2024-044D","EPOCH":"2026-03-09T02:36:23.167872","MEAN_MOTION":15.27576268,"ECCENTRICITY":7.047e-5,"INCLINATION":42.9999,"RA_OF_ASC_NODE":114.0181,"ARG_OF_PERICENTER":228.2459,"MEAN_ANOMALY":131.8332,"EPHEMERIS_TYPE":0,"CLASSIFICATION_TYPE":"U","NORAD_CAT_ID":59155,"ELEMENT_SET_NO":999,"REV_AT_EPOCH":11343,"BSTAR":-3.001456e-5,"MEAN_MOTION_DOT":-1.087e-5,"MEAN_MOTION_DDOT":0}]
